<?xml version='1.0' encoding='UTF-8'?>
<osm version="0.6">
  <relation id="409217">
    <member type="node" ref="31901450" role="label"/>
    <member type="way" ref="50336546" role="outer"/>
    <member type="way" ref="24793699" role="outer"/>
    <member type="way" ref="304488115" role="outer"/>
    <member type="way" ref="38329460" role="outer"/>
    <member type="way" ref="315945262" role="outer"/>
    <member type="way" ref="38329461" role="outer"/>
    <tag k="ref" v="0505"/>
    <tag k="name" v="Gatow"/>
    <tag k="type" v="boundary"/>
    <tag k="place" v="suburb"/>
    <tag k="source" v="http://wiki.openstreetmap.org/wiki/Import/Catalogue/Kreisgrenzen_Deutschland_2005"/>
    <tag k="name:ru" v="Гато"/>
    <tag k="boundary" v="administrative"/>
    <tag k="wikidata" v="Q515832"/>
    <tag k="wikipedia" v="de:Berlin-Gatow"/>
    <tag k="admin_level" v="10"/>
    <tag k="name:prefix" v="Ortsteil"/>
    <tag k="geographical_region" v="Nauener Platte"/>
    <tag k="TMC:cid_58:tabcd_1:Class" v="Area"/>
    <tag k="TMC:cid_58:tabcd_1:LCLversion" v="9.00"/>
    <tag k="TMC:cid_58:tabcd_1:LocationCode" v="32508"/>
  </relation>
</osm>
