<?xml version='1.0' encoding='UTF-8'?>
<osm version="0.6">
  <relation id="110113">
    <member type="way" ref="252904411" role="admin_centre"/>
    <member type="way" ref="25132206" role="outer"/>
    <member type="way" ref="25132251" role="outer"/>
    <member type="way" ref="25132207" role="outer"/>
    <member type="way" ref="98007369" role="outer"/>
    <member type="way" ref="316145272" role="outer"/>
    <member type="way" ref="316145112" role="outer"/>
    <member type="way" ref="25132041" role="outer"/>
    <tag k="ref" v="1207"/>
    <tag k="name" v="Waidmannslust"/>
    <tag k="type" v="boundary"/>
    <tag k="place" v="suburb"/>
    <tag k="source" v="http://wiki.openstreetmap.org/wiki/Import/Catalogue/Kreisgrenzen_Deutschland_2005"/>
    <tag k="name:ru" v="Вайдманслуст"/>
    <tag k="boundary" v="administrative"/>
    <tag k="wikidata" v="Q648245"/>
    <tag k="wikipedia" v="de:Berlin-Waidmannslust"/>
    <tag k="admin_level" v="10"/>
    <tag k="name:prefix" v="Ortsteil"/>
    <tag k="geographical_region" v="Barnim"/>
  </relation>
</osm>
